[{"OBJECT_NAME":"GESAT GEN1","OBJECT_ID":"2025-009D","EPOCH":"2026-03-09T17:26:20.087232","MEAN_MOTION":15.26847505,"ECCENTRICITY":8.879e-5,"INCLINATION":97.4058,"RA_OF_ASC_NODE":151.4598,"ARG_OF_PERICENTER":98.3547,"MEAN_ANOMALY":261.7793,"EPHEMERIS_TYPE":0,"CLASSIFICATION_TYPE":"U","NORAD_CAT_ID":62612,"ELEMENT_SET_NO":999,"REV_AT_EPOCH":6373,"BSTAR":0.00038326131,"MEAN_MOTION_DOT":0.00010041,"MEAN_MOTION_DDOT":0},{"OBJECT_NAME":"OBJECT F","OBJECT_ID":"2026-023F","EPOCH":"2026-03-09T17:11:01.401216","MEAN_MOTION":15.23264948,"ECCENTRICITY":0.00223432,"INCLINATION":96.6318,"RA_OF_ASC_NODE":144.1544,"ARG_OF_PERICENTER":121.6413,"MEAN_ANOMALY":238.701,"EPHEMERIS_TYPE":0,"CLASSIFICATION_TYPE":"U","NORAD_CAT_ID":67679,"ELEMENT_SET_NO":999,"REV_AT_EPOCH":484,"BSTAR":0.00053756888,"MEAN_MOTION_DOT":0.00012778,"MEAN_MOTION_DDOT":0}]
